ONEWEB-0351             
1 49215U 21083AF  26076.29045069  .00000036  00000+0  55776-4 0  9993
2 49215  87.9162 292.7878 0002534  92.6423 267.5001 13.20771108224648
ONEWEB-0352             
1 49216U 21083AG  26076.15487036  .00000047  00000+0  92478-4 0  9995
2 49216  87.9024 338.5472 0002137  84.5585 275.5788 13.13472320218946
ONEWEB-0354             
1 49217U 21083AH  26076.16431754  .00000113  00000+0  24504-3 0  9991
2 49217  87.9162 292.8122 0001723  76.7884 283.3442 13.20770511224660
ONEWEB-0355             
1 49218U 21083AJ  26076.18378983  .00000318  00000+0  83709-3 0  9997
2 49218  87.9018 338.5514 0001972  76.9736 283.1614 13.13469593218825
ONEWEB-0357             
1 49219U 21083AK  26076.16116124  .00000081  00000+0  16835-3 0  9996
2 49219  87.9161 292.8074 0001854  88.2155 271.9191 13.20770983224668
ONEWEB-0332             
1 49279U 21090A   26076.19222997 -.00000099  00000+0 -30123-3 0  9996
2 49279  87.8976 308.0685 0001732  90.3039 269.8289 13.14502928215495
ONEWEB-0347             
1 49280U 21090B   26076.15169644  .00000134  00000+0  29817-3 0  9999
2 49280  87.9161 292.8183 0001590  96.9097 263.2217 13.20771305218895
ONEWEB-0349             
1 49281U 21090C   26076.10750580  .00000067  00000+0  13373-3 0  9995
2 49281  87.9161 292.8271 0001702  86.1290 274.0038 13.20770496217671
ONEWEB-0353             
1 49282U 21090D   26076.18429941  .00000114  00000+0  27172-3 0  9993
2 49282  87.8977 308.0646 0001651  91.8861 268.2458 13.14503139215492
ONEWEB-0356             
1 49283U 21090E   26076.10592133  .00000111  00000+0  24149-3 0  9998
2 49283  87.9160 292.8207 0000849 100.4985 259.6245 13.20770515217674
ONEWEB-0358             
1 49284U 21090F   26076.28743011  .00000054  00000+0  10111-3 0  9991
2 49284  87.9160 292.7874 0001568  83.6412 276.4900 13.20771190218429
ONEWEB-0359             
1 49285U 21090G   26076.13275937  .00000030  00000+0  41316-4 0  9999
2 49285  87.9162 292.8154 0001678  78.1537 281.9784 13.20771442218389
ONEWEB-0360             
1 49286U 21090H   26076.12328208  .00000083  00000+0  17301-3 0  9993
2 49286  87.9161 292.8236 0001692  82.7274 277.4052 13.20770645217690
ONEWEB-0361             
1 49287U 21090J   26076.10434360  .00000092  00000+0  19354-3 0  9999
2 49287  87.9163 292.8252 0001478  86.6907 273.4395 13.20770349218147
ONEWEB-0362             
1 49288U 21090K   26076.13564252  .00000064  00000+0  12778-3 0  9999
2 49288  87.9220 323.3244 0001994  80.2659 279.8699 13.19724967214775
ONEWEB-0363             
1 49289U 21090L   26076.12013314 -.00000041  00000+0 -13165-3 0  9995
2 49289  87.9163 292.8230 0001323  85.2130 274.9154 13.20770842218155
ONEWEB-0364             
1 49290U 21090M   26076.15800120 -.00000774  00000+0 -19347-2 0  9999
2 49290  87.9150 292.8289 0001521  86.4310 273.6998 13.20776212219295
