[{"OBJECT_NAME":"ONEWEB-0351","OBJECT_ID":"2021-083AF","EPOCH":"2026-03-17T06:58:14.939616","MEAN_MOTION":13.20771108,"ECCENTRICITY":0.00025348,"INCLINATION":87.9162,"RA_OF_ASC_NODE":292.7878,"ARG_OF_PERICENTER":92.6423,"MEAN_ANOMALY":267.5001,"EPHEMERIS_TYPE":0,"CLASSIFICATION_TYPE":"U","NORAD_CAT_ID":49215,"ELEMENT_SET_NO":999,"REV_AT_EPOCH":22464,"BSTAR":5.5776103e-5,"MEAN_MOTION_DOT":3.6e-7,"MEAN_MOTION_DDOT":0},{"OBJECT_NAME":"ONEWEB-0352","OBJECT_ID":"2021-083AG","EPOCH":"2026-03-17T03:43:00.799104","MEAN_MOTION":13.1347232,"ECCENTRICITY":0.00021376,"INCLINATION":87.9024,"RA_OF_ASC_NODE":338.5472,"ARG_OF_PERICENTER":84.5585,"MEAN_ANOMALY":275.5788,"EPHEMERIS_TYPE":0,"CLASSIFICATION_TYPE":"U","NORAD_CAT_ID":49216,"ELEMENT_SET_NO":999,"REV_AT_EPOCH":21894,"BSTAR":9.2477552e-5,"MEAN_MOTION_DOT":4.7e-7,"MEAN_MOTION_DDOT":0},{"OBJECT_NAME":"ONEWEB-0354","OBJECT_ID":"2021-083AH","EPOCH":"2026-03-17T03:56:37.035456","MEAN_MOTION":13.20770511,"ECCENTRICITY":0.00017231,"INCLINATION":87.9162,"RA_OF_ASC_NODE":292.8122,"ARG_OF_PERICENTER":76.7884,"MEAN_ANOMALY":283.3442,"EPHEMERIS_TYPE":0,"CLASSIFICATION_TYPE":"U","NORAD_CAT_ID":49217,"ELEMENT_SET_NO":999,"REV_AT_EPOCH":22466,"BSTAR":0.00024504424,"MEAN_MOTION_DOT":1.13e-6,"MEAN_MOTION_DDOT":0},{"OBJECT_NAME":"ONEWEB-0355","OBJECT_ID":"2021-083AJ","EPOCH":"2026-03-17T04:24:39.441312","MEAN_MOTION":13.13469593,"ECCENTRICITY":0.00019724,"INCLINATION":87.9018,"RA_OF_ASC_NODE":338.5514,"ARG_OF_PERICENTER":76.9736,"MEAN_ANOMALY":283.1614,"EPHEMERIS_TYPE":0,"CLASSIFICATION_TYPE":"U","NORAD_CAT_ID":49218,"ELEMENT_SET_NO":999,"REV_AT_EPOCH":21882,"BSTAR":0.00083709041,"MEAN_MOTION_DOT":3.18e-6,"MEAN_MOTION_DDOT":0},{"OBJECT_NAME":"ONEWEB-0357","OBJECT_ID":"2021-083AK","EPOCH":"2026-03-17T03:52:04.331136","MEAN_MOTION":13.20770983,"ECCENTRICITY":0.00018542,"INCLINATION":87.9161,"RA_OF_ASC_NODE":292.8074,"ARG_OF_PERICENTER":88.2155,"MEAN_ANOMALY":271.9191,"EPHEMERIS_TYPE":0,"CLASSIFICATION_TYPE":"U","NORAD_CAT_ID":49219,"ELEMENT_SET_NO":999,"REV_AT_EPOCH":22466,"BSTAR":0.00016834917,"MEAN_MOTION_DOT":8.1e-7,"MEAN_MOTION_DDOT":0},{"OBJECT_NAME":"ONEWEB-0332","OBJECT_ID":"2021-090A","EPOCH":"2026-03-17T04:36:48.669408","MEAN_MOTION":13.14502928,"ECCENTRICITY":0.00017322,"INCLINATION":87.8976,"RA_OF_ASC_NODE":308.0685,"ARG_OF_PERICENTER":90.3039,"MEAN_ANOMALY":269.8289,"EPHEMERIS_TYPE":0,"CLASSIFICATION_TYPE":"U","NORAD_CAT_ID":49279,"ELEMENT_SET_NO":999,"REV_AT_EPOCH":21549,"BSTAR":-0.00030122971,"MEAN_MOTION_DOT":-9.9e-7,"MEAN_MOTION_DDOT":0},{"OBJECT_NAME":"ONEWEB-0347","OBJECT_ID":"2021-090B","EPOCH":"2026-03-17T03:38:26.572416","MEAN_MOTION":13.20771305,"ECCENTRICITY":0.00015903,"INCLINATION":87.9161,"RA_OF_ASC_NODE":292.8183,"ARG_OF_PERICENTER":96.9097,"MEAN_ANOMALY":263.2217,"EPHEMERIS_TYPE":0,"CLASSIFICATION_TYPE":"U","NORAD_CAT_ID":49280,"ELEMENT_SET_NO":999,"REV_AT_EPOCH":21889,"BSTAR":0.0002981689,"MEAN_MOTION_DOT":1.34e-6,"MEAN_MOTION_DDOT":0},{"OBJECT_NAME":"ONEWEB-0349","OBJECT_ID":"2021-090C","EPOCH":"2026-03-17T02:34:48.501120","MEAN_MOTION":13.20770496,"ECCENTRICITY":0.00017027,"INCLINATION":87.9161,"RA_OF_ASC_NODE":292.8271,"ARG_OF_PERICENTER":86.129,"MEAN_ANOMALY":274.0038,"EPHEMERIS_TYPE":0,"CLASSIFICATION_TYPE":"U","NORAD_CAT_ID":49281,"ELEMENT_SET_NO":999,"REV_AT_EPOCH":21767,"BSTAR":0.00013373139,"MEAN_MOTION_DOT":6.7e-7,"MEAN_MOTION_DDOT":0},{"OBJECT_NAME":"ONEWEB-0353","OBJECT_ID":"2021-090D","EPOCH":"2026-03-17T04:25:23.469024","MEAN_MOTION":13.14503139,"ECCENTRICITY":0.00016513,"INCLINATION":87.8977,"RA_OF_ASC_NODE":308.0646,"ARG_OF_PERICENTER":91.8861,"MEAN_ANOMALY":268.2458,"EPHEMERIS_TYPE":0,"CLASSIFICATION_TYPE":"U","NORAD_CAT_ID":49282,"ELEMENT_SET_NO":999,"REV_AT_EPOCH":21549,"BSTAR":0.00027171671,"MEAN_MOTION_DOT":1.14e-6,"MEAN_MOTION_DDOT":0},{"OBJECT_NAME":"ONEWEB-0356","OBJECT_ID":"2021-090E","EPOCH":"2026-03-17T02:32:31.602912","MEAN_MOTION":13.20770515,"ECCENTRICITY":8.494e-5,"INCLINATION":87.916,"RA_OF_ASC_NODE":292.8207,"ARG_OF_PERICENTER":100.4985,"MEAN_ANOMALY":259.6245,"EPHEMERIS_TYPE":0,"CLASSIFICATION_TYPE":"U","NORAD_CAT_ID":49283,"ELEMENT_SET_NO":999,"REV_AT_EPOCH":21767,"BSTAR":0.00024148514,"MEAN_MOTION_DOT":1.11e-6,"MEAN_MOTION_DDOT":0},{"OBJECT_NAME":"ONEWEB-0358","OBJECT_ID":"2021-090F","EPOCH":"2026-03-17T06:53:53.961504","MEAN_MOTION":13.2077119,"ECCENTRICITY":0.00015687,"INCLINATION":87.916,"RA_OF_ASC_NODE":292.7874,"ARG_OF_PERICENTER":83.6412,"MEAN_ANOMALY":276.49,"EPHEMERIS_TYPE":0,"CLASSIFICATION_TYPE":"U","NORAD_CAT_ID":49284,"ELEMENT_SET_NO":999,"REV_AT_EPOCH":21842,"BSTAR":0.0001011122,"MEAN_MOTION_DOT":5.4e-7,"MEAN_MOTION_DDOT":0},{"OBJECT_NAME":"ONEWEB-0359","OBJECT_ID":"2021-090G","EPOCH":"2026-03-17T03:11:10.409568","MEAN_MOTION":13.20771442,"ECCENTRICITY":0.00016783,"INCLINATION":87.9162,"RA_OF_ASC_NODE":292.8154,"ARG_OF_PERICENTER":78.1537,"MEAN_ANOMALY":281.9784,"EPHEMERIS_TYPE":0,"CLASSIFICATION_TYPE":"U","NORAD_CAT_ID":49285,"ELEMENT_SET_NO":999,"REV_AT_EPOCH":21838,"BSTAR":4.1315832e-5,"MEAN_MOTION_DOT":3.0e-7,"MEAN_MOTION_DDOT":0},{"OBJECT_NAME":"ONEWEB-0360","OBJECT_ID":"2021-090H","EPOCH":"2026-03-17T02:57:31.571712","MEAN_MOTION":13.20770645,"ECCENTRICITY":0.00016928,"INCLINATION":87.9161,"RA_OF_ASC_NODE":292.8236,"ARG_OF_PERICENTER":82.7274,"MEAN_ANOMALY":277.4052,"EPHEMERIS_TYPE":0,"CLASSIFICATION_TYPE":"U","NORAD_CAT_ID":49286,"ELEMENT_SET_NO":999,"REV_AT_EPOCH":21769,"BSTAR":0.00017301128,"MEAN_MOTION_DOT":8.3e-7,"MEAN_MOTION_DDOT":0},{"OBJECT_NAME":"ONEWEB-0361","OBJECT_ID":"2021-090J","EPOCH":"2026-03-17T02:30:15.287040","MEAN_MOTION":13.20770349,"ECCENTRICITY":0.00014783,"INCLINATION":87.9163,"RA_OF_ASC_NODE":292.8252,"ARG_OF_PERICENTER":86.6907,"MEAN_ANOMALY":273.4395,"EPHEMERIS_TYPE":0,"CLASSIFICATION_TYPE":"U","NORAD_CAT_ID":49287,"ELEMENT_SET_NO":999,"REV_AT_EPOCH":21814,"BSTAR":0.00019353646,"MEAN_MOTION_DOT":9.2e-7,"MEAN_MOTION_DDOT":0},{"OBJECT_NAME":"ONEWEB-0362","OBJECT_ID":"2021-090K","EPOCH":"2026-03-17T03:15:19.513728","MEAN_MOTION":13.19724967,"ECCENTRICITY":0.0001994,"INCLINATION":87.922,"RA_OF_ASC_NODE":323.3244,"ARG_OF_PERICENTER":80.2659,"MEAN_ANOMALY":279.8699,"EPHEMERIS_TYPE":0,"CLASSIFICATION_TYPE":"U","NORAD_CAT_ID":49288,"ELEMENT_SET_NO":999,"REV_AT_EPOCH":21477,"BSTAR":0.00012778298,"MEAN_MOTION_DOT":6.4e-7,"MEAN_MOTION_DDOT":0},{"OBJECT_NAME":"ONEWEB-0363","OBJECT_ID":"2021-090L","EPOCH":"2026-03-17T02:52:59.503296","MEAN_MOTION":13.20770842,"ECCENTRICITY":0.00013238,"INCLINATION":87.9163,"RA_OF_ASC_NODE":292.823,"ARG_OF_PERICENTER":85.213,"MEAN_ANOMALY":274.9154,"EPHEMERIS_TYPE":0,"CLASSIFICATION_TYPE":"U","NORAD_CAT_ID":49289,"ELEMENT_SET_NO":999,"REV_AT_EPOCH":21815,"BSTAR":-0.00013165445,"MEAN_MOTION_DOT":-4.1e-7,"MEAN_MOTION_DDOT":0},{"OBJECT_NAME":"ONEWEB-0364","OBJECT_ID":"2021-090M","EPOCH":"2026-03-17T03:47:31.303680","MEAN_MOTION":13.20776212,"ECCENTRICITY":0.00015212,"INCLINATION":87.915,"RA_OF_ASC_NODE":292.8289,"ARG_OF_PERICENTER":86.431,"MEAN_ANOMALY":273.6998,"EPHEMERIS_TYPE":0,"CLASSIFICATION_TYPE":"U","NORAD_CAT_ID":49290,"ELEMENT_SET_NO":999,"REV_AT_EPOCH":21929,"BSTAR":-0.0019346635,"MEAN_MOTION_DOT":-7.74e-6,"MEAN_MOTION_DDOT":0}]
